{
  "links" : {
    "next" : "https://api.nasa.gov/neo/rest/v1/feed?start_date=1997-08-16&end_date=1997-08-16&detailed=true&api_key=t0TVs3DtDT2H8Oy2Zy8m2eVrNsAVKAexjcZXUckd",
    "prev" : "https://api.nasa.gov/neo/rest/v1/feed?start_date=1997-08-14&end_date=1997-08-14&detailed=true&api_key=t0TVs3DtDT2H8Oy2Zy8m2eVrNsAVKAexjcZXUckd",
    "self" : "https://api.nasa.gov/neo/rest/v1/feed?start_date=1997-08-15&end_date=1997-08-15&detailed=true&api_key=t0TVs3DtDT2H8Oy2Zy8m2eVrNsAVKAexjcZXUckd"
  },
  "element_count" : 3,
  "near_earth_objects" : {
    "1997-08-15" : [ {
      "links" : {
        "self" : "https://api.nasa.gov/neo/rest/v1/neo/2424969?api_key=t0TVs3DtDT2H8Oy2Zy8m2eVrNsAVKAexjcZXUckd"
      },
      "neo_reference_id" : "2424969",
      "name" : "424969 (2009 BT5)",
      "nasa_jpl_url" : "http://ssd.jpl.nasa.gov/sbdb.cgi?sstr=2424969",
      "absolute_magnitude_h" : 20.6,
      "estimated_diameter" : {
        "kilometers" : {
          "estimated_diameter_min" : 0.2016299194,
          "estimated_diameter_max" : 0.4508582062
        },
        "meters" : {
          "estimated_diameter_min" : 201.6299194428,
          "estimated_diameter_max" : 450.8582061718
        },
        "miles" : {
          "estimated_diameter_min" : 0.1252869847,
          "estimated_diameter_max" : 0.2801502144
        },
        "feet" : {
          "estimated_diameter_min" : 661.5155049046,
          "estimated_diameter_max" : 1479.1936371367
        }
      },
      "is_potentially_hazardous_asteroid" : false,
      "close_approach_data" : [ {
        "close_approach_date" : "1997-08-15",
        "epoch_date_close_approach" : 871628400000,
        "relative_velocity" : {
          "kilometers_per_second" : "10.8878476274",
          "kilometers_per_hour" : "39196.2514585392",
          "miles_per_hour" : "24355.0263576684"
        },
        "miss_distance" : {
          "astronomical" : "0.4558117066",
          "lunar" : "177.310760498",
          "kilometers" : "68188464",
          "miles" : "42370344"
        },
        "orbiting_body" : "Earth"
      } ],
      "orbital_data" : {
        "orbit_id" : "25",
        "orbit_determination_date" : "2017-04-06 09:21:03",
        "orbit_uncertainty" : "1",
        "minimum_orbit_intersection" : ".254043",
        "jupiter_tisserand_invariant" : "4.863",
        "epoch_osculation" : "2458000.5",
        "eccentricity" : ".1291944793350214",
        "semi_major_axis" : "1.323701113893963",
        "inclination" : "21.21396297873538",
        "ascending_node_longitude" : "130.5197895198399",
        "orbital_period" : "556.2670406551897",
        "perihelion_distance" : "1.152686237689244",
        "perihelion_argument" : "73.30545162903394",
        "aphelion_distance" : "1.494715990098682",
        "perihelion_time" : "2457728.235083475586",
        "mean_anomaly" : "176.2020087211052",
        "mean_motion" : ".6471711852206452",
        "equinox" : "J2000"
      }
    }, {
      "links" : {
        "self" : "https://api.nasa.gov/neo/rest/v1/neo/3682230?api_key=t0TVs3DtDT2H8Oy2Zy8m2eVrNsAVKAexjcZXUckd"
      },
      "neo_reference_id" : "3682230",
      "name" : "(2014 QC3)",
      "nasa_jpl_url" : "http://ssd.jpl.nasa.gov/sbdb.cgi?sstr=3682230",
      "absolute_magnitude_h" : 20.6,
      "estimated_diameter" : {
        "kilometers" : {
          "estimated_diameter_min" : 0.2016299194,
          "estimated_diameter_max" : 0.4508582062
        },
        "meters" : {
          "estimated_diameter_min" : 201.6299194428,
          "estimated_diameter_max" : 450.8582061718
        },
        "miles" : {
          "estimated_diameter_min" : 0.1252869847,
          "estimated_diameter_max" : 0.2801502144
        },
        "feet" : {
          "estimated_diameter_min" : 661.5155049046,
          "estimated_diameter_max" : 1479.1936371367
        }
      },
      "is_potentially_hazardous_asteroid" : true,
      "close_approach_data" : [ {
        "close_approach_date" : "1997-08-15",
        "epoch_date_close_approach" : 871628400000,
        "relative_velocity" : {
          "kilometers_per_second" : "26.3767586556",
          "kilometers_per_hour" : "94956.3311602424",
          "miles_per_hour" : "59002.1714367629"
        },
        "miss_distance" : {
          "astronomical" : "0.3826899452",
          "lunar" : "148.866394043",
          "kilometers" : "57249604",
          "miles" : "35573252"
        },
        "orbiting_body" : "Earth"
      } ],
      "orbital_data" : {
        "orbit_id" : "22",
        "orbit_determination_date" : "2017-07-21 11:36:50",
        "orbit_uncertainty" : "0",
        "minimum_orbit_intersection" : ".0454314",
        "jupiter_tisserand_invariant" : "4.851",
        "epoch_osculation" : "2458000.5",
        "eccentricity" : ".3729143449910114",
        "semi_major_axis" : "1.26060158508341",
        "inclination" : "37.61844021615358",
        "ascending_node_longitude" : "146.3730684638862",
        "orbital_period" : "516.9698317496465",
        "perihelion_distance" : ".7905051706873996",
        "perihelion_argument" : "64.6174965490855",
        "aphelion_distance" : "1.730697999479421",
        "perihelion_time" : "2457842.909127433282",
        "mean_anomaly" : "109.7408603747936",
        "mean_motion" : ".6963655863275551",
        "equinox" : "J2000"
      }
    }, {
      "links" : {
        "self" : "https://api.nasa.gov/neo/rest/v1/neo/3701883?api_key=t0TVs3DtDT2H8Oy2Zy8m2eVrNsAVKAexjcZXUckd"
      },
      "neo_reference_id" : "3701883",
      "name" : "(2014 XL7)",
      "nasa_jpl_url" : "http://ssd.jpl.nasa.gov/sbdb.cgi?sstr=3701883",
      "absolute_magnitude_h" : 21.0,
      "estimated_diameter" : {
        "kilometers" : {
          "estimated_diameter_min" : 0.1677084622,
          "estimated_diameter_max" : 0.3750075218
        },
        "meters" : {
          "estimated_diameter_min" : 167.7084621628,
          "estimated_diameter_max" : 375.0075217981
        },
        "miles" : {
          "estimated_diameter_min" : 0.1042091748,
          "estimated_diameter_max" : 0.2330187988
        },
        "feet" : {
          "estimated_diameter_min" : 550.2246310023,
          "estimated_diameter_max" : 1230.3396778159
        }
      },
      "is_potentially_hazardous_asteroid" : true,
      "close_approach_data" : [ {
        "close_approach_date" : "1997-08-15",
        "epoch_date_close_approach" : 871628400000,
        "relative_velocity" : {
          "kilometers_per_second" : "12.6834458229",
          "kilometers_per_hour" : "45660.404962368",
          "miles_per_hour" : "28371.5999612003"
        },
        "miss_distance" : {
          "astronomical" : "0.2635652709",
          "lunar" : "102.5268936157",
          "kilometers" : "39428804",
          "miles" : "24499922"
        },
        "orbiting_body" : "Earth"
      } ],
      "orbital_data" : {
        "orbit_id" : "18",
        "orbit_determination_date" : "2017-04-06 08:36:55",
        "orbit_uncertainty" : "2",
        "minimum_orbit_intersection" : ".00215466",
        "jupiter_tisserand_invariant" : "4.092",
        "epoch_osculation" : "2458000.5",
        "eccentricity" : ".5332462604352894",
        "semi_major_axis" : "1.653696612656535",
        "inclination" : "7.502275135786705",
        "ascending_node_longitude" : "74.49124208498932",
        "orbital_period" : "776.7516457501827",
        "perihelion_distance" : ".7718690780629323",
        "perihelion_argument" : "250.7422433155759",
        "aphelion_distance" : "2.535524147250137",
        "perihelion_time" : "2457669.892935061889",
        "mean_anomaly" : "153.2259944718528",
        "mean_motion" : ".4634686028277596",
        "equinox" : "J2000"
      }
    } ]
  }
}